{
  "norad_id": 59576,
  "name": "STARLINK-31663",
  "history": [
    {
      "epoch": "2026-03-28T20:59:13.712064Z",
      "apogee_km": 484.2480123694568,
      "perigee_km": 481.82821313069144,
      "latitude_deg": -1.3145909334159833e-05,
      "longitude_deg": 119.82830516051574,
      "height_km": 482.66092880687654,
      "semi_major_axis_km": 6861.175112750074,
      "eccentricity": 0.00017634,
      "inclination_deg": 43.0026,
      "raan_deg": 260.9241,
      "arg_perigee_deg": 277.3355,
      "mean_anomaly_deg": 82.7296,
      "mean_motion_rev_day": 15.27583668
    }
  ]
}